API VERSION: 1.2
API SOURCE: NASA/JPL Horizons API



*******************************************************************************
Ephemeris / API_USER Wed Apr 15 12:09:09 2026 Pasadena, USA      / Horizons
*******************************************************************************
Target body name: Earth (399)                     {source: DE441}
Center body name: Sun (10)                        {source: DE441}
Center-site name: BODY CENTER
*******************************************************************************
Start time      : A.D. 1600-Jan-01 00:00:00.0000 TDB
Stop  time      : A.D. 1699-Dec-17 00:00:00.0000 TDB
Step-size       : 43200 minutes
*******************************************************************************
Center geodetic : 0.0, 0.0, 0.0                   {E-lon(deg),Lat(deg),Alt(km)}
Center cylindric: 0.0, 0.0, 0.0                   {E-lon(deg),Dxy(km),Dz(km)}
Center radii    : 695700.0, 695700.0, 695700.0 km {Equator_a, b, pole_c}
Output units    : AU-D
Calendar mode   : Mixed Julian/Gregorian
Output type     : GEOMETRIC cartesian states
Output format   : 3 (position, velocity, LT, range, range-rate)
Reference frame : Ecliptic of J2000.0
*******************************************************************************
            JDTDB,            Calendar Date (TDB),                      X,                      Y,                      Z,                     VX,                     VY,                     VZ,                     LT,                     RG,                     RR,
**************************************************************************************************************************************************************************************************************************************************************************
$$SOE
2305447.500000000, A.D. 1600-Jan-01 00:00:00.0000, -2.638652282592019E-01,  9.470832122220952E-01,  8.453320533516006E-04, -1.685036682240968E-02, -4.674204077547677E-03, -4.769711206921492E-06,  5.678225114028113E-03,  9.831542016100442E-01,  1.969339446392762E-05,
2305477.500000000, A.D. 1600-Jan-31 00:00:00.0000, -7.102910571721134E-01,  6.838291961974374E-01,  5.771401733781801E-04, -1.221212232058743E-02, -1.244762168165217E-02, -1.154141865194898E-05,  5.694485605759156E-03,  9.859696184779182E-01,  1.644142783071766E-04,
2305507.500000000, A.D. 1600-Mar-01 00:00:00.0000, -9.643234839664923E-01,  2.348678202074249E-01,  1.524193147446871E-04, -4.354918951758104E-03, -1.676797294411744E-02, -1.518373141958177E-05,  5.732278895829667E-03,  9.925133238047278E-01,  2.632620043563348E-04,
2305537.500000000, A.D. 1600-Mar-31 00:00:00.0000, -9.618563894346124E-01, -2.771144274158162E-01, -3.134295335323267E-04,  4.475438288438127E-03, -1.658495801604603E-02, -1.478725598484510E-05,  5.781176197674840E-03,  1.000979629171472E+00,  2.909218702894198E-04,
2305567.500000000, A.D. 1600-Apr-30 00:00:00.0000, -7.094199039720048E-01, -7.176676921219982E-01, -6.985563723605852E-04,  1.194527820591608E-02, -1.215048824457162E-02, -1.061850115688281E-05,  5.828193433936112E-03,  1.009120411273288E+00,  2.435806012374833E-04,
2305597.500000000, A.D. 1600-May-30 00:00:00.0000, -2.766472984012129E-01, -9.764369447887639E-01, -9.069392090222866E-04,  1.626194604448595E-02, -4.749280722432932E-03, -3.844557482727823E-06,  5.861407517879560E-03,  1.014871251637287E+00,  1.365229384117972E-04,
2305627.500000000, A.D. 1600-Jun-29 00:00:00.0000,  2.254227154612659E-01, -9.915289490046751E-01, -8.890738540122974E-04,  1.648706543434768E-02,  3.750792509820373E-03,  3.879588807327307E-06,  5.872727685764914E-03,  1.016831277947607E+00, -2.422962681199379E-06,
2305657.500000000, A.D. 1600-Jul-29 00:00:00.0000,  6.715260710495540E-01, -7.604839040172822E-01, -6.503590755551339E-04,  1.261080472863686E-02,  1.132212663544600E-02,  1.075062127696945E-05,  5.859471721436763E-03,  1.014536078873267E+00, -1.397859652551707E-04,
2305687.500000000, A.D. 1600-Aug-28 00:00:00.0000,  9.496430168918895E-01, -3.395948868944165E-01, -2.489682742334170E-04,  5.512259878607431E-03,  1.613473854790367E-02,  1.508379450181914E-05,  5.824823153620225E-03,  1.008536865325984E+00, -2.425289298083060E-04,
2305717.500000000, A.D. 1600-Sep-27 00:00:00.0000,  9.862326617485455E-01,  1.671701876001528E-01,  2.157296197335835E-04, -3.152790771713478E-03,  1.690071367601110E-02,  1.561905542673545E-05,  5.777252982533153E-03,  1.000300345526862E+00, -2.840010909778055E-04,
2305747.500000000, A.D. 1600-Oct-27 00:00:00.0000,  7.662651684804659E-01,  6.298719223340059E-01,  6.240541429653746E-04, -1.120203416869830E-02,  1.323316807850702E-02,  1.194678320542895E-05,  5.728840643785065E-03,  9.919180089174237E-01, -2.505450306875612E-04,
2305777.500000000, A.D. 1600-Nov-26 00:00:00.0000,  3.423483205391056E-01,  9.242492434794419E-01,  8.656261123692754E-04, -1.641258299883288E-02,  5.921937999911879E-03,  4.867343848875035E-06,  5.692445873118366E-03,  9.856164497190747E-01, -1.475921954731280E-04,
2305807.500000000, A.D. 1600-Dec-26 00:00:00.0000, -1.742154467944357E-01,  9.675787242204423E-01,  8.719432076329245E-04, -1.721512916600170E-02, -3.101165699928145E-03, -3.684689963490820E-06,  5.678131666774464E-03,  9.831380217196367E-01, -1.509193075000516E-06,
2305837.500000000, A.D. 1601-Jan-25 00:00:00.0000, -6.431256031053725E-01,  7.463122234892264E-01,  6.396926523014659E-04, -1.331964395534770E-02, -1.128421544440715E-02, -1.124122575027688E-05,  5.689963997130065E-03,  9.851867262127375E-01,  1.468238847587778E-04,
2305867.500000000, A.D. 1601-Feb-24 00:00:00.0000, -9.374362782816962E-01,  3.219695334937928E-01,  2.332678408055925E-04, -5.878049334633732E-03, -1.632719778280741E-02, -1.565810365584371E-05,  5.724617353392626E-03,  9.911867688537483E-01,  2.556862075397829E-04,
2305897.500000000, A.D. 1601-Mar-26 00:00:00.0000, -9.814691704317239E-01, -1.888786171768869E-01, -2.359225685459892E-04,  2.960646765114554E-03, -1.695368278519278E-02, -1.581554641022357E-05,  5.772505382275183E-03,  9.994783240241120E-01,  2.965630771014485E-04,
2305927.500000000, A.D. 1601-Apr-25 00:00:00.0000, -7.693691465067233E-01, -6.510207296859354E-01, -6.439956962021158E-04,  1.082366694914058E-02, -1.319628608467027E-02, -1.184118583735737E-05,  5.820843733140909E-03,  1.007847850028837E+00,  2.616149043908313E-04,
2305957.500000000, A.D. 1601-May-25 00:00:00.0000, -3.610060874215623E-01, -9.477263806608072E-01, -8.881841963177548E-04,  1.579101466127059E-02, -6.189345738423856E-03, -4.883524229072524E-06,  5.857273961500114E-03,  1.014155548536330E+00,  1.628528816515523E-04,
2305987.500000000, A.D. 1601-Jun-24 00:00:00.0000,  1.379377895758148E-01, -1.007451686205625E+00, -9.098296765661769E-04,  1.676303965719481E-02,  2.268685183008057E-03,  3.277385206270927E-06,  5.872843310176307E-03,  1.016851297693846E+00,  2.622108266188012E-05,
2306017.500000000, A.D. 1601-Jul-24 00:00:00.0000,  6.026756087455537E-01, -8.170617816589887E-01, -7.052000097589555E-04,  1.356655521703885E-02,  1.015026483877718E-02,  1.060401579177258E-05,  5.863810527137687E-03,  1.015287319792599E+00, -1.154047973816764E-04,
2306047.500000000, A.D. 1601-Aug-23 00:00:00.0000,  9.169497341940583E-01, -4.230500554548375E-01, -3.251481870383303E-04,  6.929769036437535E-03,  1.556427680006190E-02,  1.524128513202000E-05,  5.832324966513286E-03,  1.009835763963744E+00, -2.279808769750701E-04,
2306077.500000000, A.D. 1601-Sep-22 00:00:00.0000,  9.988106633870175E-01,  7.771266563401071E-02,  1.365186383539953E-04, -1.613991626578857E-03,  1.709919442189359E-02,  1.594506022677687E-05,  5.786083694643574E-03,  1.001829335931473E+00, -2.827286859827248E-04,
2306107.500000000, A.D. 1601-Oct-22 00:00:00.0000,  8.218948357463350E-01,  5.577803702266281E-01,  5.618973975103678E-04, -9.944285686348963E-03,  1.418444206112053E-02,  1.240275362221150E-05,  5.736780169109008E-03,  9.932926951132454E-01, -2.631115065048051E-04,
2306137.500000000, A.D. 1601-Nov-21 00:00:00.0000,  4.270152486048825E-01,  8.892688644429050E-01,  8.371450971100204E-04, -1.579628894511271E-02,  7.395402355999716E-03,  5.458132980483772E-06,  5.697430531561718E-03,  9.864795165742555E-01, -1.710634875120011E-04,
2306167.500000000, A.D. 1601-Dec-21 00:00:00.0000, -8.318997757555407E-02,  9.797361776949891E-01,  8.851202961068225E-04, -1.743285543359210E-02, -1.510177543023099E-03, -3.023212900150522E-06,  5.678848213831125E-03,  9.832620879965560E-01, -2.983883677518342E-05,
2306197.500000000, A.D. 1602-Jan-20 00:00:00.0000, -5.705788826752005E-01,  8.023540657577939E-01,  6.909029200132746E-04, -1.431175364430759E-02, -1.002898984869673E-02, -1.064636798211932E-05,  5.686269218300685E-03,  9.845469950895120E-01,  1.210468041992520E-04,
2306227.500000000, A.D. 1602-Feb-19 00:00:00.0000, -9.027578733674381E-01,  4.062835564644622E-01,  3.083670346753246E-04, -7.350583891395136E-03, -1.575101787290163E-02, -1.525791379022638E-05,  5.717582882808839E-03,  9.899687880284607E-01,  2.388087587086729E-04,
2306257.500000000, A.D. 1602-Mar-21 00:00:00.0000, -9.930788740958227E-01, -9.917061662121332E-02, -1.569561743995173E-04,  1.422594949573826E-03, -1.718412714606851E-02, -1.567225096860312E-05,  5.764072867769914E-03,  9.980182793975767E-01,  2.919926019673960E-04,
2306287.500000000, A.D. 1602-Apr-20 00:00:00.0000, -8.231752965010517E-01, -5.792183623859615E-01, -5.811613455827645E-04,  9.617412454801957E-03, -1.413578142013062E-02, -1.196819604405028E-05,  5.813258794955885E-03,  1.006534558692934E+00,  2.691360860616145E-04,
2306317.500000000, A.D. 1602-May-20 00:00:00.0000, -4.425206854790213E-01, -9.115963972277191E-01, -8.565849017626188E-04,  1.519800356320617E-02, -7.576671006772696E-03, -5.304356431662420E-06,  5.852493432843837E-03,  1.013327825658150E+00,  1.790531919567977E-04,
